[{"OBJECT_NAME":"ONEWEB-0332","OBJECT_ID":"2021-090A","EPOCH":"2026-03-09T17:35:04.260480","MEAN_MOTION":13.14503441,"ECCENTRICITY":0.00016145,"INCLINATION":87.8984,"RA_OF_ASC_NODE":309.5537,"ARG_OF_PERICENTER":92.7609,"MEAN_ANOMALY":267.3706,"EPHEMERIS_TYPE":0,"CLASSIFICATION_TYPE":"U","NORAD_CAT_ID":49279,"ELEMENT_SET_NO":999,"REV_AT_EPOCH":21451,"BSTAR":0.00074309621,"MEAN_MOTION_DOT":2.88e-6,"MEAN_MOTION_DDOT":0},{"OBJECT_NAME":"METEOR 3-6","OBJECT_ID":"1994-003A","EPOCH":"2026-03-09T19:16:37.191936","MEAN_MOTION":13.17059795,"ECCENTRICITY":0.00162952,"INCLINATION":82.5663,"RA_OF_ASC_NODE":157.4504,"ARG_OF_PERICENTER":96.7518,"MEAN_ANOMALY":263.5459,"EPHEMERIS_TYPE":0,"CLASSIFICATION_TYPE":"U","NORAD_CAT_ID":22969,"ELEMENT_SET_NO":999,"REV_AT_EPOCH":54415,"BSTAR":-0.0003016254,"MEAN_MOTION_DOT":-1.04e-6,"MEAN_MOTION_DDOT":0}]
